{"type": "FeatureCollection", "features": [ {"type": "Feature", "properties": {"norad_id": 66979, "name": "STARLINK-36107", "group": "last-30-days", "lat": 32.74251207421173, "lon": 136.24623341815007, "alt_km": 363.19607785340577, "timestamp": "2025-12-24T22:42:20.747987+00:00", "meta": {"OBJECT_NAME": "STARLINK-36107", "OBJECT_ID": "2025-288W", "EPOCH": "2025-12-24T06:00:02.000160", "MEAN_MOTION": 15.69812323, "ECCENTRICITY": 0.0001287, "INCLINATION": 43.0004, "RA_OF_ASC_NODE": 96.7929, "ARG_OF_PERICENTER": 279.4938, "MEAN_ANOMALY": 158.2883, "EPHEMERIS_TYPE": 0, "CLASSIFICATION_TYPE": "U", "NORAD_CAT_ID": 66979, "ELEMENT_SET_NO": 999, "REV_AT_EPOCH": 368, "BSTAR": -0.017667103, "MEAN_MOTION_DOT": -0.01924062, "MEAN_MOTION_DDOT": 0}, "tle": {"line1": "1 66979U 25288W   25358.25002315 -.01924062  00000+0 -17667-1 0  9996", "line2": "2 66979  43.0004  96.7929 0001287 279.4938 158.2883 15.69812323  3684"}}, "geometry": {"type": "Point", "coordinates": [136.24623341815007, 32.74251207421173]}}, {"type": "Feature", "properties": {"norad_id": 66980, "name": "STARLINK-36086", "group": "last-30-days", "lat": 33.674890323899334, "lon": 138.24995517425685, "alt_km": 363.17093110931546, "timestamp": "2025-12-24T22:42:20.747998+00:00", "meta": {"OBJECT_NAME": "STARLINK-36086", "OBJECT_ID": "2025-288X", "EPOCH": "2025-12-24T06:00:02.000160", "MEAN_MOTION": 15.69818448, "ECCENTRICITY": 0.0001339, "INCLINATION": 43.0003, "RA_OF_ASC_NODE": 96.7875, "ARG_OF_PERICENTER": 276.0568, "MEAN_ANOMALY": 163.6342, "EPHEMERIS_TYPE": 0, "CLASSIFICATION_TYPE": "U", "NORAD_CAT_ID": 66980, "ELEMENT_SET_NO": 999, "REV_AT_EPOCH": 368, "BSTAR": -0.017678522, "MEAN_MOTION_DOT": -0.01925641, "MEAN_MOTION_DDOT": 0}, "tle": {"line1": "1 66980U 25288X   25358.25002315 -.01925641  00000+0 -17679-1 0  9995", "line2": "2 66980  43.0003  96.7875 0001339 276.0568 163.6342 15.69818448  3689"}}, "geometry": {"type": "Point", "coordinates": [138.24995517425685, 33.674890323899334]}}, {"type": "Feature", "properties": {"norad_id": 66981, "name": "STARLINK-36142", "group": "last-30-days", "lat": 34.57312397544396, "lon": 140.2958727368215, "alt_km": 363.03331835720564, "timestamp": "2025-12-24T22:42:20.748009+00:00", "meta": {"OBJECT_NAME": "STARLINK-36142", "OBJECT_ID": "2025-288Y", "EPOCH": "2025-12-24T06:00:02.000160", "MEAN_MOTION": 15.69815923, "ECCENTRICITY": 0.00013564, "INCLINATION": 43.0002, "RA_OF_ASC_NODE": 96.7832, "ARG_OF_PERICENTER": 277.3136, "MEAN_ANOMALY": 164.2956, "EPHEMERIS_TYPE": 0, "CLASSIFICATION_TYPE": "U", "NORAD_CAT_ID": 66981, "ELEMENT_SET_NO": 999, "REV_AT_EPOCH": 368, "BSTAR": -0.017651274, "MEAN_MOTION_DOT": -0.01922845, "MEAN_MOTION_DDOT": 0}, "tle": {"line1": "1 66981U 25288Y   25358.25002315 -.01922845  00000+0 -17651-1 0  9999", "line2": "2 66981  43.0002  96.7832 0001356 277.3136 164.2956 15.69815923  3689"}}, "geometry": {"type": "Point", "coordinates": [140.2958727368215, 34.57312397544396]}}, {"type": "Feature", "properties": {"norad_id": 66982, "name": "STARLINK-36113", "group": "last-30-days", "lat": 35.435114721560595, "lon": 142.38106718803218, "alt_km": 362.8914774263103, "timestamp": "2025-12-24T22:42:20.748020+00:00", "meta": {"OBJECT_NAME": "STARLINK-36113", "OBJECT_ID": "2025-288Z", "EPOCH": "2025-12-24T06:00:02.000160", "MEAN_MOTION": 15.69818454, "ECCENTRICITY": 0.00012965, "INCLINATION": 43.0003, "RA_OF_ASC_NODE": 96.7778, "ARG_OF_PERICENTER": 277.8648, "MEAN_ANOMALY": 165.6599, "EPHEMERIS_TYPE": 0, "CLASSIFICATION_TYPE": "U", "NORAD_CAT_ID": 66982, "ELEMENT_SET_NO": 999, "REV_AT_EPOCH": 368, "BSTAR": -0.017681123, "MEAN_MOTION_DOT": -0.0192586, "MEAN_MOTION_DDOT": 0}, "tle": {"line1": "1 66982U 25288Z   25358.25002315 -.01925860  00000+0 -17681-1 0  9993", "line2": "2 66982  43.0003  96.7778 0001296 277.8648 165.6599 15.69818454  3686"}}, "geometry": {"type": "Point", "coordinates": [142.38106718803218, 35.435114721560595]}}, {"type": "Feature", "properties": {"norad_id": 66983, "name": "STARLINK-36145", "group": "last-30-days", "lat": 37.051866056804606, "lon": 146.7008782555275, "alt_km": 362.4263060166995, "timestamp": "2025-12-24T22:42:20.748029+00:00", "meta": {"OBJECT_NAME": "STARLINK-36145", "OBJECT_ID": "2025-288AA", "EPOCH": "2025-12-24T06:00:02.000160", "MEAN_MOTION": 15.69799324, "ECCENTRICITY": 0.00010987, "INCLINATION": 43.0004, "RA_OF_ASC_NODE": 96.7685, "ARG_OF_PERICENTER": 283.4045, "MEAN_ANOMALY": 163.9649, "EPHEMERIS_TYPE": 0, "CLASSIFICATION_TYPE": "U", "NORAD_CAT_ID": 66983, "ELEMENT_SET_NO": 999, "REV_AT_EPOCH": 368, "BSTAR": -0.017461351, "MEAN_MOTION_DOT": -0.01903133, "MEAN_MOTION_DDOT": 0}, "tle": {"line1": "1 66983U 25288AA  25358.25002315 -.01903133  00000+0 -17461-1 0  9999", "line2": "2 66983  43.0004  96.7685 0001098 283.4045 163.9649 15.69799324  3680"}}, "geometry": {"type": "Point", "coordinates": [146.7008782555275, 37.051866056804606]}}, {"type": "Feature", "properties": {"norad_id": 66984, "name": "STARLINK-35591", "group": "last-30-days", "lat": 36.26056957055587, "lon": 144.51134497326728, "alt_km": 362.75521362297604, "timestamp": "2025-12-24T22:42:20.748039+00:00", "meta": {"OBJECT_NAME": "STARLINK-35591", "OBJECT_ID": "2025-288AB", "EPOCH": "2025-12-24T06:00:02.000160", "MEAN_MOTION": 15.69811088, "ECCENTRICITY": 0.00012515, "INCLINATION": 43.0004, "RA_OF_ASC_NODE": 96.7725, "ARG_OF_PERICENTER": 278.4187, "MEAN_ANOMALY": 167.0315, "EPHEMERIS_TYPE": 0, "CLASSIFICATION_TYPE": "U", "NORAD_CAT_ID": 66984, "ELEMENT_SET_NO": 999, "REV_AT_EPOCH": 368, "BSTAR": -0.017640669, "MEAN_MOTION_DOT": -0.01921397, "MEAN_MOTION_DDOT": 0}, "tle": {"line1": "1 66984U 25288AB  25358.25002315 -.01921397  00000+0 -17641-1 0  9992", "line2": "2 66984  43.0004  96.7725 0001251 278.4187 167.0315 15.69811088  3685"}}, "geometry": {"type": "Point", "coordinates": [144.51134497326728, 36.26056957055587]}}, {"type": "Feature", "properties": {"norad_id": 66985, "name": "STARLINK-36103", "group": "last-30-days", "lat": 37.79541526173061, "lon": 148.91379985239638, "alt_km": 362.59951908714993, "timestamp": "2025-12-24T22:42:20.748049+00:00", "meta": {"OBJECT_NAME": "STARLINK-36103", "OBJECT_ID": "2025-288AC", "EPOCH": "2025-12-24T06:00:02.000160", "MEAN_MOTION": 15.69817017, "ECCENTRICITY": 0.00013466, "INCLINATION": 43.0005, "RA_OF_ASC_NODE": 96.7634, "ARG_OF_PERICENTER": 279.1462, "MEAN_ANOMALY": 170.1298, "EPHEMERIS_TYPE": 0, "CLASSIFICATION_TYPE": "U", "NORAD_CAT_ID": 66985, "ELEMENT_SET_NO": 999, "REV_AT_EPOCH": 368, "BSTAR": -0.017658093, "MEAN_MOTION_DOT": -0.01923573, "MEAN_MOTION_DDOT": 0}, "tle": {"line1": "1 66985U 25288AC  25358.25002315 -.01923573  00000+0 -17658-1 0  9999", "line2": "2 66985  43.0005  96.7634 0001346 279.1462 170.1298 15.69817017  3688"}}, "geometry": {"type": "Point", "coordinates": [148.91379985239638, 37.79541526173061]}}, {"type": "Feature", "properties": {"norad_id": 66986, "name": "STARLINK-36135", "group": "last-30-days", "lat": 38.500444386698156, "lon": 151.18392266318156, "alt_km": 362.47804413924405, "timestamp": "2025-12-24T22:42:20.748060+00:00", "meta": {"OBJECT_NAME": "STARLINK-36135", "OBJECT_ID": "2025-288AD", "EPOCH": "2025-12-24T06:00:02.000160", "MEAN_MOTION": 15.69808129, "ECCENTRICITY": 0.00013483, "INCLINATION": 43.0004, "RA_OF_ASC_NODE": 96.758, "ARG_OF_PERICENTER": 280.0547, "MEAN_ANOMALY": 171.1437, "EPHEMERIS_TYPE": 0, "CLASSIFICATION_TYPE": "U", "NORAD_CAT_ID": 66986, "ELEMENT_SET_NO": 999, "REV_AT_EPOCH": 368, "BSTAR": -0.017559178, "MEAN_MOTION_DOT": -0.01913392, "MEAN_MOTION_DDOT": 0}, "tle": {"line1": "1 66986U 25288AD  25358.25002315 -.01913392  00000+0 -17559-1 0  9998", "line2": "2 66986  43.0004  96.7580 0001348 280.0547 171.1437 15.69808129  3685"}}, "geometry": {"type": "Point", "coordinates": [151.18392266318156, 38.500444386698156]}}, {"type": "Feature", "properties": {"norad_id": 66987, "name": "STARLINK-36147", "group": "last-30-days", "lat": 39.15687405652948, "lon": 153.485833234088, "alt_km": 362.3711592224754, "timestamp": "2025-12-24T22:42:20.748069+00:00", "meta": {"OBJECT_NAME": "STARLINK-36147", "OBJECT_ID": "2025-288AE", "EPOCH": "2025-12-24T06:00:02.000160", "MEAN_MOTION": 15.69820584, "ECCENTRICITY": 0.00012502, "INCLINATION": 43.0001, "RA_OF_ASC_NODE": 96.7538, "ARG_OF_PERICENTER": 280.4304, "MEAN_ANOMALY": 172.677, "EPHEMERIS_TYPE": 0, "CLASSIFICATION_TYPE": "U", "NORAD_CAT_ID": 66987, "ELEMENT_SET_NO": 999, "REV_AT_EPOCH": 368, "BSTAR": -0.017696539, "MEAN_MOTION_DOT": -0.01927466, "MEAN_MOTION_DDOT": 0}, "tle": {"line1": "1 66987U 25288AE  25358.25002315 -.01927466  00000+0 -17697-1 0  9999", "line2": "2 66987  43.0001  96.7538 0001250 280.4304 172.6770 15.69820584  3688"}}, "geometry": {"type": "Point", "coordinates": [153.485833234088, 39.15687405652948]}}, {"type": "Feature", "properties": {"norad_id": 66988, "name": "YAOGAN-47", "group": "last-30-days", "lat": -72.10532116846127, "lon": 88.2692677777186, "alt_km": 503.688645211133, "timestamp": "2025-12-24T22:42:20.748079+00:00", "meta": {"OBJECT_NAME": "YAOGAN-47", "OBJECT_ID": "2025-289A", "EPOCH": "2025-12-20T02:21:43.539840", "MEAN_MOTION": 15.23243112, "ECCENTRICITY": 6.467e-05, "INCLINATION": 97.5265, "RA_OF_ASC_NODE": 59.2376, "ARG_OF_PERICENTER": 91.4531, "MEAN_ANOMALY": 268.678, "EPHEMERIS_TYPE": 0, "CLASSIFICATION_TYPE": "U", "NORAD_CAT_ID": 66988, "ELEMENT_SET_NO": 999, "REV_AT_EPOCH": 166, "BSTAR": 0.00010945697, "MEAN_MOTION_DOT": 2.52e-05, "MEAN_MOTION_DDOT": 0}, "tle": {"line1": "1 66988U 25289A   25354.09842060  .00002520  00000+0  10946-3 0  9992", "line2": "2 66988  97.5265  59.2376 0000646  91.4531 268.6780 15.23243112  1668"}}, "geometry": {"type": "Point", "coordinates": [88.2692677777186, -72.10532116846127]}}]}